{
  "type": "FeatureCollection",
  "features": [
    {
      "type": "Feature",
      "properties": {
        "norad_id": 40128,
        "name": "GSAT0201 (GALILEO 5)",
        "group": "gnss",
        "lat": -26.488129356787848,
        "lon": -104.84000657301813,
        "alt_km": 25451.299981545166,
        "timestamp": "2025-12-20T09:36:01.887702+00:00",
        "meta_object_name": "GSAT0201 (GALILEO 5)",
        "meta_object_id": "2014-050A",
        "meta_epoch": "2025-12-18T20:33:33.240672",
        "meta_mean_motion": 1.85519721,
        "meta_eccentricity": 0.1648519,
        "meta_inclination": 49.0697,
        "meta_ra_of_asc_node": 280.8143,
        "meta_arg_of_pericenter": 172.5106,
        "meta_mean_anomaly": 190.3447,
        "meta_ephemeris_type": 0,
        "meta_classification_type": "U",
        "meta_norad_cat_id": 40128,
        "meta_element_set_no": 999,
        "meta_rev_at_epoch": 7497,
        "meta_bstar": 0,
        "meta_mean_motion_dot": -5.8e-07,
        "meta_mean_motion_ddot": 0,
        "tle_line1": "1 40128U 14050A   25352.85663473 -.00000058  00000+0  00000+0 0  9996",
        "tle_line2": "2 40128  49.0697 280.8143 1648519 172.5106 190.3447  1.85519721 74978"
      },
      "geometry": {
        "type": "Point",
        "coordinates": [
          -104.84000657301813,
          -26.488129356787848
        ]
      }
    },
    {
      "type": "Feature",
      "properties": {
        "norad_id": 40129,
        "name": "GSAT0202 (GALILEO 6)",
        "group": "gnss",
        "lat": 35.057714120068276,
        "lon": 62.40579283504107,
        "alt_km": 17885.882466015468,
        "timestamp": "2025-12-20T09:36:01.887713+00:00",
        "meta_object_name": "GSAT0202 (GALILEO 6)",
        "meta_object_id": "2014-050B",
        "meta_epoch": "2025-12-18T13:46:22.484640",
        "meta_mean_motion": 1.85520466,
        "meta_eccentricity": 0.16491259,
        "meta_inclination": 49.0858,
        "meta_ra_of_asc_node": 279.9095,
        "meta_arg_of_pericenter": 173.2442,
        "meta_mean_anomaly": 189.3393,
        "meta_ephemeris_type": 0,
        "meta_classification_type": "U",
        "meta_norad_cat_id": 40129,
        "meta_element_set_no": 999,
        "meta_rev_at_epoch": 7713,
        "meta_bstar": 0,
        "meta_mean_motion_dot": -5.9e-07,
        "meta_mean_motion_ddot": 0,
        "tle_line1": "1 40129U 14050B   25352.57387135 -.00000059  00000+0  00000+0 0  9995",
        "tle_line2": "2 40129  49.0858 279.9095 1649125 173.2442 189.3393  1.85520466 77135"
      },
      "geometry": {
        "type": "Point",
        "coordinates": [
          62.40579283504107,
          35.057714120068276
        ]
      }
    },
    {
      "type": "Feature",
      "properties": {
        "norad_id": 40269,
        "name": "IRNSS-1C",
        "group": "gnss",
        "lat": -4.199637062009127,
        "lon": -44.072209376256595,
        "alt_km": 35842.54039874003,
        "timestamp": "2025-12-20T09:36:01.887740+00:00",
        "meta_object_name": "IRNSS-1C",
        "meta_object_id": "2014-061A",
        "meta_epoch": "2025-12-19T20:30:17.808192",
        "meta_mean_motion": 1.0027408,
        "meta_eccentricity": 0.001806,
        "meta_inclination": 6.0596,
        "meta_ra_of_asc_node": 92.4798,
        "meta_arg_of_pericenter": 1.3194,
        "meta_mean_anomaly": 25.4519,
        "meta_ephemeris_type": 0,
        "meta_classification_type": "U",
        "meta_norad_cat_id": 40269,
        "meta_element_set_no": 999,
        "meta_rev_at_epoch": 4089,
        "meta_bstar": 0,
        "meta_mean_motion_dot": -1.43e-06,
        "meta_mean_motion_ddot": 0,
        "tle_line1": "1 40269U 14061A   25353.85437278 -.00000143  00000+0  00000+0 0  9992",
        "tle_line2": "2 40269   6.0596  92.4798 0018060   1.3194  25.4519  1.00274080 40890"
      },
      "geometry": {
        "type": "Point",
        "coordinates": [
          -44.072209376256595,
          -4.199637062009127
        ]
      }
    },
    {
      "type": "Feature",
      "properties": {
        "norad_id": 40294,
        "name": "GPS BIIF-8  (PRN 03)",
        "group": "gnss",
        "lat": -21.882023919852504,
        "lon": 22.67115438330579,
        "alt_km": 20199.4101202996,
        "timestamp": "2025-12-20T09:36:01.887753+00:00",
        "meta_object_name": "GPS BIIF-8  (PRN 03)",
        "meta_object_id": "2014-068A",
        "meta_epoch": "2025-12-19T10:32:44.453760",
        "meta_mean_motion": 2.00565341,
        "meta_eccentricity": 0.0060808,
        "meta_inclination": 56.8627,
        "meta_ra_of_asc_node": 37.8869,
        "meta_arg_of_pericenter": 69.0507,
        "meta_mean_anomaly": 291.6667,
        "meta_ephemeris_type": 0,
        "meta_classification_type": "U",
        "meta_norad_cat_id": 40294,
        "meta_element_set_no": 999,
        "meta_rev_at_epoch": 8160,
        "meta_bstar": 0,
        "meta_mean_motion_dot": -6.1e-07,
        "meta_mean_motion_ddot": 0,
        "tle_line1": "1 40294U 14068A   25353.43940340 -.00000061  00000+0  00000+0 0  9999",
        "tle_line2": "2 40294  56.8627  37.8869 0060808  69.0507 291.6667  2.00565341 81603"
      },
      "geometry": {
        "type": "Point",
        "coordinates": [
          22.67115438330579,
          -21.882023919852504
        ]
      }
    },
    {
      "type": "Feature",
      "properties": {
        "norad_id": 40315,
        "name": "COSMOS 2501 (702K)",
        "group": "gnss",
        "lat": -63.371556145470755,
        "lon": 114.424850369703,
        "alt_km": 19118.201900883363,
        "timestamp": "2025-12-20T09:36:01.887764+00:00",
        "meta_object_name": "COSMOS 2501 (702K)",
        "meta_object_id": "2014-075A",
        "meta_epoch": "2025-12-19T02:31:27.452640",
        "meta_mean_motion": 2.13101513,
        "meta_eccentricity": 0.0020099,
        "meta_inclination": 63.6146,
        "meta_ra_of_asc_node": 196.6046,
        "meta_arg_of_pericenter": 204.1838,
        "meta_mean_anomaly": 155.7988,
        "meta_ephemeris_type": 0,
        "meta_classification_type": "U",
        "meta_norad_cat_id": 40315,
        "meta_element_set_no": 999,
        "meta_rev_at_epoch": 8601,
        "meta_bstar": 0,
        "meta_mean_motion_dot": 1.06e-06,
        "meta_mean_motion_ddot": 0,
        "tle_line1": "1 40315U 14075A   25353.10517885  .00000106  00000+0  00000+0 0  9998",
        "tle_line2": "2 40315  63.6146 196.6046 0020099 204.1838 155.7988  2.13101513 86014"
      },
      "geometry": {
        "type": "Point",
        "coordinates": [
          114.424850369703,
          -63.371556145470755
        ]
      }
    },
    {
      "type": "Feature",
      "properties": {
        "norad_id": 40534,
        "name": "GPS BIIF-9  (PRN 26)",
        "group": "gnss",
        "lat": -43.96876190962718,
        "lon": 77.82113649706002,
        "alt_km": 20452.689821594904,
        "timestamp": "2025-12-20T09:36:01.887776+00:00",
        "meta_object_name": "GPS BIIF-9  (PRN 26)",
        "meta_object_id": "2015-013A",
        "meta_epoch": "2025-12-19T01:41:54.527136",
        "meta_mean_motion": 2.00562262,
        "meta_eccentricity": 0.0107309,
        "meta_inclination": 53.1969,
        "meta_ra_of_asc_node": 211.6279,
        "meta_arg_of_pericenter": 38.6346,
        "meta_mean_anomaly": 322.2232,
        "meta_ephemeris_type": 0,
        "meta_classification_type": "U",
        "meta_norad_cat_id": 40534,
        "meta_element_set_no": 999,
        "meta_rev_at_epoch": 7821,
        "meta_bstar": 0,
        "meta_mean_motion_dot": 8.5e-07,
        "meta_mean_motion_ddot": 0,
        "tle_line1": "1 40534U 15013A   25353.07076999  .00000085  00000+0  00000+0 0  9992",
        "tle_line2": "2 40534  53.1969 211.6279 0107309  38.6346 322.2232  2.00562262 78218"
      },
      "geometry": {
        "type": "Point",
        "coordinates": [
          77.82113649706002,
          -43.96876190962718
        ]
      }
    },
    {
      "type": "Feature",
      "properties": {
        "norad_id": 40544,
        "name": "GSAT0203 (GALILEO 7)",
        "group": "gnss",
        "lat": 45.57340742784545,
        "lon": 28.299016831840703,
        "alt_km": 23232.27990466884,
        "timestamp": "2025-12-20T09:36:01.887787+00:00",
        "meta_object_name": "GSAT0203 (GALILEO 7)",
        "meta_object_id": "2015-017A",
        "meta_epoch": "2025-12-17T08:55:11.074944",
        "meta_mean_motion": 1.7047611,
        "meta_eccentricity": 0.00064774,
        "meta_inclination": 56.8452,
        "meta_ra_of_asc_node": 346.5536,
        "meta_arg_of_pericenter": 273.4606,
        "meta_mean_anomaly": 86.4809,
        "meta_ephemeris_type": 0,
        "meta_classification_type": "U",
        "meta_norad_cat_id": 40544,
        "meta_element_set_no": 999,
        "meta_rev_at_epoch": 6610,
        "meta_bstar": 0,
        "meta_mean_motion_dot": -7.9e-07,
        "meta_mean_motion_ddot": 0,
        "tle_line1": "1 40544U 15017A   25351.37165596 -.00000079  00000+0  00000+0 0  9994",
        "tle_line2": "2 40544  56.8452 346.5536 0006477 273.4606  86.4809  1.70476110 66108"
      },
      "geometry": {
        "type": "Point",
        "coordinates": [
          28.299016831840703,
          45.57340742784545
        ]
      }
    }
  ]
}